[Satellite]
VERSION=1.1
NAME=ERS-1
NICKNAME=ERS-1
TLE1=1 21574U 91050A   18020.90445773  .00000022  00000-0  21677-4 0  9995
TLE2=2 21574  98.4876 329.8950 0033580  26.8698 333.4220 14.37628042388886
